GLOBALSTAR M067 [+]     
1 32263U 07048A   24106.52785917 -.00000102  00000+0 -34436-4 0  9990
2 32263  51.9719 207.2682 0001440 142.4795 230.6620 12.40641878756646
GLOBALSTAR M070 [+]     
1 32264U 07048B   24106.87584615 -.00000061  00000+0  24140-3 0  9994
2 32264  51.9774 350.2375 0000436  91.0606 349.7842 12.62289875759707
GLOBALSTAR M066 [+]     
1 32265U 07048C   24106.60293571 -.00000059  00000+0  25060-3 0  9993
2 32265  51.9668 213.0575 0000936 122.7364 339.5566 12.62259645761936
GLOBALSTAR M068 [-]     
1 32266U 07048D   24107.20943334 -.00000050  00000+0  29696-3 0  9990
2 32266  51.9867 163.7864 0000641 260.0660 135.5123 12.62784825763903
GLOBALSTAR M079 [+]     
1 37188U 10054A   24106.90434420 -.00000074  00000+0  16601-3 0  9994
2 37188  52.0067   0.5036 0000943  80.1851   0.5488 12.62268364622490
GLOBALSTAR M074 [+]     
1 37189U 10054B   24106.93137986 -.00000076  00000+0  15622-3 0  9999
2 37189  52.0042 359.8110 0000653  79.5988   3.4239 12.62266929623108
GLOBALSTAR M076 [+]     
1 37190U 10054C   24106.87751071 -.00000076  00000+0  15396-3 0  9999
2 37190  52.0056   0.1060 0000985 108.9891 329.8621 12.62276585622819
GLOBALSTAR M077 [+]     
1 37191U 10054D   24106.84993752 -.00000075  00000+0  15859-3 0  9994
2 37191  52.0078 316.9257 0000740  98.1509 274.4072 12.62271565623184
